NORAD_CAT_ID,OBJECT_NAME,OBJECT_TYPE,EPOCH,MEAN_MOTION,ECCENTRICITY,INCLINATION,RA_OF_ASC_NODE,ARG_OF_PERICENTER,MEAN_ANOMALY,BSTAR,MEAN_MOTION_DOT,MEAN_MOTION_DDOT,TLE_LINE0,TLE_LINE1,TLE_LINE2,SEMIMAJOR_AXIS,PERIOD,APOGEE,PERIGEE,DECAYED
55414.0,STARLINK-5620,PAYLOAD,2024-07-26 12:35:48,14.98333378,0.0002924,70.0005,134.9048,268.2879,91.7945,0.00012015,1.341e-05,0.0,0 STARLINK-5620,1 55414U 23014Z   24208.52486636  .00001341  00000-0  12015-3 0  9996,2 55414  70.0005 134.9048 0002924 268.2879  91.7945 14.98333378 83017,6950.182,96.107,574.08,570.015,0.0
55414.0,STARLINK-5620,PAYLOAD,2024-07-27 04:37:07,14.9835552,0.000299,70.0005,133.222,268.2225,91.8592,0.00017817,2.035e-05,0.0,0 STARLINK-5620,1 55414U 23014Z   24209.19244591  .00002035  00000-0  17817-3 0  9998,2 55414  70.0005 133.2220 0002990 268.2225  91.8592 14.98355520 83112,6950.114,96.105,574.057,569.901,0.0
55414.0,STARLINK-5620,PAYLOAD,2024-07-27 22:14:39,14.98298993,0.0003066,70.0006,131.3705,263.9221,96.1589,-0.00017281,-2.153e-05,0.0,0 STARLINK-5620,1 55414U 23014Z   24209.92684865 -.00002153  00000-0 -17281-3 0  9999,2 55414  70.0006 131.3705 0003066 263.9221  96.1589 14.98298993 83229,6950.289,96.109,574.285,570.023,0.0
55414.0,STARLINK-5620,PAYLOAD,2024-07-28 04:39:07,14.98369993,0.0003409,69.9984,130.697,269.6328,90.444,0.00035632,4.165e-05,0.0,0 STARLINK-5620,1 55414U 23014Z   24210.19383477  .00004165  00000-0  35632-3 0  9998,2 55414  69.9984 130.6970 0003409 269.6328  90.4440 14.98369993 83265,6950.069,96.104,574.303,569.565,0.0
55414.0,STARLINK-5620,PAYLOAD,2024-07-28 12:39:49,14.98353189,0.000249,70.0013,129.8619,300.1936,59.8976,6.7761e-05,7.16e-06,0.0,0 STARLINK-5620,1 55414U 23014Z   24210.52765325  .00000716  00000-0  67761-4 0  9998,2 55414  70.0013 129.8619 0002490 300.1936  59.8976 14.98353189 83315,6950.121,96.106,573.717,570.256,0.0
55414.0,STARLINK-5620,PAYLOAD,2024-07-28 20:40:30,14.98350165,3.44e-05,69.9983,129.0095,275.8114,84.3006,-0.00013862,-1.747e-05,0.0,0 STARLINK-5620,1 55414U 23014Z   24210.86146280 -.00001747  00000-0 -13862-3 0  9997,2 55414  69.9983 129.0095 0000344 275.8114  84.3006 14.98350165 83363,6950.131,96.106,572.235,571.756,0.0
55414.0,STARLINK-5620,PAYLOAD,2024-07-28 22:16:38,14.98347416,0.0001468,69.9991,128.8416,264.3303,95.7689,-0.0001257,-1.593e-05,0.0,0 STARLINK-5620,1 55414U 23014Z   24210.92821950 -.00001593  00000-0 -12570-3 0  9992,2 55414  69.9991 128.8416 0001468 264.3303  95.7689 14.98347416 83376,6950.139,96.106,573.024,570.984,0.0
55414.0,STARLINK-5620,PAYLOAD,2024-07-29 04:41:10,14.98330278,0.0003015,70.0005,128.1725,265.301,94.7805,6.6599e-05,7.02e-06,0.0,0 STARLINK-5620,1 55414U 23014Z   24211.19525848  .00000702  00000-0  66599-4 0  9999,2 55414  70.0005 128.1725 0003015 265.3010  94.7805 14.98330278 83419,6950.192,96.107,574.153,569.962,0.0
55414.0,STARLINK-5620,PAYLOAD,2024-07-29 20:42:31,14.98309047,0.0003073,70.0009,126.4886,272.9088,87.172,0.00027619,3.202e-05,0.0,0 STARLINK-5620,1 55414U 23014Z   24211.86286696  .00003202  00000-0  27619-3 0  9995,2 55414  70.0009 126.4886 0003073 272.9088  87.1720 14.98309047 83518,6950.258,96.108,574.259,569.987,0.0
55414.0,STARLINK-5620,PAYLOAD,2024-07-29 22:18:39,14.98308868,0.0003077,70.0009,126.3203,272.856,87.2247,0.00026887,3.115e-05,0.0,0 STARLINK-5620,1 55414U 23014Z   24211.92962802  .00003115  00000-0  26887-3 0  9991,2 55414  70.0009 126.3203 0003077 272.8560  87.2247 14.98308868 83524,6950.258,96.108,574.262,569.985,0.0
55414.0,STARLINK-5620,PAYLOAD,2024-07-30 11:07:43,14.98346006,0.0002802,70.0009,124.9738,271.4293,88.6545,-0.00020034,-2.484e-05,0.0,0 STARLINK-5620,1 55414U 23014Z   24212.46369886 -.00002484  00000-0 -20034-3 0  9992,2 55414  70.0009 124.9738 0002802 271.4293  88.6545 14.98346006 83605,6950.143,96.106,573.956,570.061,0.0
55414.0,STARLINK-5620,PAYLOAD,2024-07-30 22:20:39,14.98333,0.0002894,70.0008,123.7956,271.5478,88.535,9.4163e-05,1.031e-05,0.0,0 STARLINK-5620,1 55414U 23014Z   24212.93101812  .00001031  00000-0  94163-4 0  9997,2 55414  70.0008 123.7956 0002894 271.5478  88.5350 14.98333000 83670,6950.184,96.107,574.06,570.037,0.0
55414.0,STARLINK-5620,PAYLOAD,2024-07-31 11:09:43,14.98357246,0.0003294,70.0005,122.446,281.3324,78.7465,-0.00036505,-4.449e-05,0.0,0 STARLINK-5620,1 55414U 23014Z   24213.46508872 -.00004449  00000-0 -36505-3 0  9996,2 55414  70.0005 122.4460 0003294 281.3324  78.7465 14.98357246 83752,6950.109,96.105,574.263,569.684,0.0
55414.0,STARLINK-5620,PAYLOAD,2024-07-31 20:46:33,14.98347495,0.0002371,70.003,121.4458,262.8862,97.2027,-0.00043777,-5.314e-05,0.0,0 STARLINK-5620,1 55414U 23014Z   24213.86566340 -.00005314  00000-0 -43777-3 0  9995,2 55414  70.0030 121.4458 0002371 262.8862  97.2027 14.98347495 83814,6950.139,96.106,573.652,570.356,0.0
55414.0,STARLINK-5620,PAYLOAD,2024-07-31 22:22:42,14.98316584,0.0003004,69.9999,121.2703,270.5004,89.5811,-9.7493e-05,-1.256e-05,0.0,0 STARLINK-5620,1 55414U 23014Z   24213.93243305 -.00001256  00000-0 -97493-4 0  9992,2 55414  69.9999 121.2703 0003004 270.5004  89.5811 14.98316584 83825,6950.234,96.108,574.187,570.012,0.0
55414.0,STARLINK-5620,PAYLOAD,2024-08-01 03:11:06,14.98322272,0.0002778,70.0006,120.7663,268.5522,91.5318,-1.535e-05,-2.76e-06,0.0,0 STARLINK-5620,1 55414U 23014Z   24214.13270874 -.00000276  00000-0 -15350-4 0  9999,2 55414  70.0006 120.7663 0002778 268.5522  91.5318 14.98322272 83854,6950.217,96.107,574.013,570.151,0.0
55414.0,STARLINK-5620,PAYLOAD,2024-08-01 20:48:33,14.9834063,0.0002917,70.0003,118.9147,270.1272,89.9552,5.0519e-05,5.1e-06,0.0,0 STARLINK-5620,1 55414U 23014Z   24214.86705408  .00000510  00000-0  50519-4 0  9990,2 55414  70.0003 118.9147 0002917 270.1272  89.9552 14.98340630 83964,6950.16,96.106,574.052,569.998,0.0
55414.0,STARLINK-5620,PAYLOAD,2024-08-01 22:24:41,14.9833857,0.0003169,69.9997,118.7453,271.5804,88.4992,6.4641e-05,6.79e-06,0.0,0 STARLINK-5620,1 55414U 23014Z   24214.93381459  .00000679  00000-0  64641-4 0  9991,2 55414  69.9997 118.7453 0003169 271.5804  88.4992 14.98338570 83970,6950.166,96.106,574.234,569.829,0.0
55414.0,STARLINK-5620,PAYLOAD,2024-08-02 03:13:04,14.98351695,0.0002848,70.0004,118.2415,266.7542,93.3291,0.0001031,1.138e-05,0.0,0 STARLINK-5620,1 55414U 23014Z   24215.13408441  .00001138  00000-0  10310-3 0  9999,2 55414  70.0004 118.2415 0002848 266.7542  93.3291 14.98351695 84008,6950.126,96.106,573.97,570.011,0.0
55414.0,STARLINK-5620,PAYLOAD,2024-08-02 11:13:45,14.98340679,0.0002794,69.9997,117.3985,273.8952,86.1888,-2.7753e-05,-4.24e-06,0.0,0 STARLINK-5620,1 55414U 23014Z   24215.46789287 -.00000424  00000-0 -27753-4 0  9994,2 55414  69.9997 117.3985 0002794 273.8952  86.1888 14.98340679 84059,6950.16,96.106,573.967,570.083,0.0
55414.0,STARLINK-5620,PAYLOAD,2024-08-02 20:50:35,14.98320322,0.0002764,69.9993,116.387,270.9541,89.1301,0.00014673,1.658e-05,0.0,0 STARLINK-5620,1 55414U 23014Z   24215.86846322  .00001658  00000-0  14673-3 0  9996,2 55414  69.9993 116.3870 0002764 270.9541  89.1301 14.98320322 84119,6950.223,96.108,574.009,570.167,0.0
55414.0,STARLINK-5620,PAYLOAD,2024-08-02 22:26:43,14.98317668,0.0002772,70.0003,116.2183,272.5215,87.5627,0.0001331,1.495e-05,0.0,0 STARLINK-5620,1 55414U 23014Z   24215.93522557  .00001495  00000-0  13310-3 0  9991,2 55414  70.0003 116.2183 0002772 272.5215  87.5627 14.98317668 84128,6950.231,96.108,574.023,570.169,0.0
55414.0,STARLINK-5620,PAYLOAD,2024-08-03 11:15:47,14.98328374,0.0003012,69.9999,114.875,268.2491,91.8323,5.5588e-05,5.7e-06,0.0,0 STARLINK-5620,1 55414U 23014Z   24216.46930242  .00000570  00000-0  55588-4 0  9991,2 55414  69.9999 114.8750 0003012 268.2491  91.8323 14.98328374 84205,6950.198,96.107,574.156,569.97,0.0
55414.0,STARLINK-5620,PAYLOAD,2024-08-03 20:52:35,14.98340485,0.000302,70.0,113.8648,272.354,87.7273,-2.0418e-05,-3.37e-06,0.0,0 STARLINK-5620,1 55414U 23014Z   24216.86985625 -.00000337  00000-0 -20418-4 0  9997,2 55414  70.0000 113.8648 0003020 272.3540  87.7273 14.98340485 84267,6950.16,96.106,574.124,569.927,0.0
55414.0,STARLINK-5620,PAYLOAD,2024-08-03 22:28:43,14.98342055,0.0002925,70.0001,113.6962,273.2602,86.8222,-1.801e-05,-3.08e-06,0.0,0 STARLINK-5620,1 55414U 23014Z   24216.93661480 -.00000308  00000-0 -18010-4 0  9998,2 55414  70.0001 113.6962 0002925 273.2602  86.8222 14.98342055 84277,6950.156,96.106,574.054,569.988,0.0
55414.0,STARLINK-5620,PAYLOAD,2024-08-04 03:17:07,14.98348035,0.0002919,70.0001,113.1917,271.486,88.5965,0.00012492,1.399e-05,0.0,0 STARLINK-5620,1 55414U 23014Z   24217.13688703  .00001399  00000-0  12492-3 0  9994,2 55414  70.0001 113.1917 0002919 271.4860  88.5965 14.98348035 84302,6950.137,96.106,574.031,569.973,0.0
55414.0,STARLINK-5620,PAYLOAD,2024-08-04 19:18:28,14.98327678,0.0002535,70.0015,111.5098,262.9705,97.1166,0.00022801,2.628e-05,0.0,0 STARLINK-5620,1 55414U 23014Z   24217.80449585  .00002628  00000-0  22801-3 0  9992,2 55414  70.0015 111.5098 0002535 262.9705  97.1166 14.98327678 84406,6950.2,96.107,573.827,570.303,0.0
55414.0,STARLINK-5620,PAYLOAD,2024-08-04 22:30:44,14.98329867,0.0002565,70.0014,111.1725,266.0162,94.0704,0.00022334,2.573e-05,0.0,0 STARLINK-5620,1 55414U 23014Z   24217.93801455  .00002573  00000-0  22334-3 0  9994,2 55414  70.0014 111.1725 0002565 266.0162  94.0704 14.98329867 84421,6950.193,96.107,573.841,570.276,0.0
55414.0,STARLINK-5620,PAYLOAD,2024-08-05 19:20:30,14.98328367,0.0002477,70.0007,108.9848,273.2057,86.8819,-6.205e-05,-8.33e-06,0.0,0 STARLINK-5620,1 55414U 23014Z   24218.80590315 -.00000833  00000-0 -62050-4 0  9990,2 55414  70.0007 108.9848 0002477 273.2057  86.8819 14.98328367 84552,6950.198,96.107,573.785,570.341,0.0
55414.0,STARLINK-5620,PAYLOAD,2024-08-05 22:32:46,14.98325851,0.0002494,70.001,108.6483,270.486,89.6013,-9.5472e-05,-1.232e-05,0.0,0 STARLINK-5620,1 55414U 23014Z   24218.93942511 -.00001232  00000-0 -95472-4 0  9991,2 55414  70.0010 108.6483 0002494 270.4860  89.6013 14.98325851 84572,6950.206,96.107,573.804,570.337,0.0
